O3B MPOWER F1           
1 54755U 22174A   24053.28539377 -.00000030  00000+0  00000+0 0  9992
2 54755   0.0631   8.1109 0006401 334.1282 162.4338  5.00118471 23044
